FLOCK 4G-25             
1 62646U 25009AP  26191.02036547  .00007781  00000+0  27105-3 0  9996
2 62646  97.4013 273.0034 0001959 176.1854 183.9401 15.29938772 82419
FLOCK 4G-23             
1 62647U 25009AQ  26190.16400452  .00029198  00000+0  87567-3 0  9995
2 62647  97.3910 271.8412 0002733 180.5045 179.6196 15.34427723 82297
FLOCK 4G-34             
1 62650U 25009AT  26191.15481441  .00007226  00000+0  25369-3 0  9996
2 62650  97.3961 272.6293 0001879 173.3477 186.7789 15.29710337 82424
FLOCK 4G-21             
1 62651U 25009AU  26190.16974770  .00028591  00000+0  90886-3 0  9993
2 62651  97.3988 272.6227 0002515 209.7301 150.3798 15.32579951 82324
FLOCK 4G-31             
1 62652U 25009AV  26190.46442611  .00007130  00000+0  25192-3 0  9995
2 62652  97.3964 271.9155 0001374 168.4560 191.6712 15.29505382 82317
FLOCK 4G-4              
1 62659U 25009BC  26191.16466711  .00028179  00000+0  91432-3 0  9993
2 62659  97.3947 272.4068 0004198 206.4718 153.6309 15.31919799140026
FLOCK 4G-6              
1 62660U 25009BD  26191.17455221  .00007359  00000+0  25664-3 0  9991
2 62660  97.3942 272.4727 0002441 223.1827 136.9222 15.29918305140017
FLOCK 4G-2              
1 62661U 25009BE  26190.18843020  .00007578  00000+0  26153-3 0  9997
2 62661  97.4003 272.1248 0003181 225.2752 134.8231 15.30246999139890
FLOCK 4G-5              
1 62663U 25009BG  26191.16611420  .00007167  00000+0  24298-3 0  9997
2 62663  97.4024 273.4934 0003013 197.5963 162.5174 15.30849730 82455
FLOCK 4G-1              
1 62666U 25009BK  26191.02293025  .00007917  00000+0  27415-3 0  9999
2 62666  97.4019 272.9356 0003474 219.2072 140.8918 15.30122478 82401
FLOCK 4G-14             
1 62667U 25009BL  26191.18333615  .00007925  00000+0  27827-3 0  9993
2 62667  97.4022 272.8950 0003655 213.2562 146.8449 15.29669803 82416
FLOCK 4G-10             
1 62670U 25009BP  26191.19458258  .00007752  00000+0  27143-3 0  9998
2 62670  97.3918 272.2101 0003230 233.2710 126.8234 15.29770032140053
FLOCK 4G-36             
1 62675U 25009BU  26191.18901967  .00008039  00000+0  28158-3 0  9998
2 62675  97.4010 272.8224 0003756 220.0636 140.0328 15.29742608 82413
FLOCK 4G-15             
1 62678U 25009BX  26190.01888225  .00006828  00000+0  23909-3 0  9996
2 62678  97.4011 271.7994 0003983 221.1747 138.9193 15.29812693139888
FLOCK 4G-30             
1 62679U 25009BY  26190.17381456  .00031072  00000+0  95491-3 0  9992
2 62679  97.3912 271.4480 0003744 217.2357 142.8626 15.33637380139915
FLOCK 4G-18             
1 62680U 25009BZ  26189.78946829  .00025667  00000+0  83398-3 0  9996
2 62680  97.4006 271.4676 0005537 232.7407 127.3330 15.31887826139841
